APRIZESAT 2             
1 28366U 04025A   26156.45611715  .00000155  00000+0  61640-4 0  9997
2 28366  98.1006 323.1013 0104312 285.6907  73.2793 14.38031311149956
SAUDICOMSAT 1           
1 28369U 04025D   26156.26061619  .00000440  00000+0  11177-3 0  9997
2 28369  98.5772 166.0703 0033254  61.2125 299.2405 14.55463764162392
SAUDICOMSAT 2           
1 28370U 04025E   26155.97996046  .00000333  00000+0  97282-4 0  9990
2 28370  98.6642 167.8805 0054241 297.2711  62.2964 14.49974015158330
APRIZESAT 1             
1 28372U 04025G   26155.61311203  .00000255  00000+0  74721-4 0  9995
2 28372  98.6304 165.9962 0044334 191.8699 168.1454 14.51770809160089
NANOSAT-1               
1 28493U 04049B   26156.60922454  .00001192  00000+0  16438-3 0  9992
2 28493  98.2262 292.9883 0003487 349.2464  10.8672 14.80136287153735
SAUDICOMSAT 7           
1 31119U 07012C   26156.71521824  .00000560  00000+0  10950-3 0  9993
2 31119  98.3772 130.6125 0054618 231.6357 127.9932 14.66098882 20751
SAUDICOMSAT 6           
1 31121U 07012E   26156.73362917  .00000784  00000+0  15917-3 0  9990
2 31121  98.4092 124.0376 0071888   3.5786 356.5914 14.62543462 18511
SAUDICOMSAT 5           
1 31124U 07012H   26156.70463786  .00000634  00000+0  11755-3 0  9996
2 31124  98.3484 131.3515 0047794 160.2308 200.0762 14.68142711 21914
SAUDICOMSAT 3           
1 31125U 07012J   26156.41299626  .00000963  00000+0  16492-3 0  9993
2 31125  98.3138 131.6035 0040507  89.2367 271.3479 14.70685866 23094
SAUDICOMSAT 4           
1 31127U 07012L   26156.47144979  .00000636  00000+0  12682-3 0  9995
2 31127  98.3978 128.8034 0062212 295.6076  63.8706 14.64499851 19577
APRIZESAT 4             
1 35684U 09041D   26156.45646631  .00000803  00000+0  10227-3 0  9990
2 35684  98.1412 231.5431 0043259   1.5163 358.6174 14.83863132909620
APRIZESAT 3             
1 35686U 09041F   26156.66320183  .00001403  00000+0  12541-3 0  9994
2 35686  98.2060 309.3366 0062906 104.7769 256.0432 14.96208828914657
S-NET D                 
1 43186U 18014G   26156.45389159  .00005227  00000+0  27103-3 0  9991
2 43186  97.5368  61.3183 0009843  65.5123 294.7136 15.16557264456986
S-NET B                 
1 43187U 18014H   26156.53109852  .00005619  00000+0  29131-3 0  9999
2 43187  97.5375  61.3812 0010387  60.8420 299.3851 15.16528735456994
S-NET A                 
1 43188U 18014J   26155.72704580  .00005834  00000+0  30204-3 0  9991
2 43188  97.5386  60.7888 0010387  63.5981 296.6317 15.16558138456879
S-NET C                 
1 43189U 18014K   26156.27098594  .00005367  00000+0  27841-3 0  9998
2 43189  97.5401  61.4022 0011517  55.3016 304.9300 15.16516677455506
SALSAT                  
1 46495U 20068K   26155.97862976  .00008911  00000+0  31300-3 0  9995
2 46495  97.8851 158.3021 0009245 356.4519   3.6652 15.29615280313492
OOV-CUBE (TUBSAT-30)    
1 60240U 24128F   26156.47750071  .00002888  00000+0  22604-3 0  9992
2 60240  61.9954 266.4024 0046084 131.1623 229.3458 15.02719699104356
LPNTSAT-001 (IOD-1)     
1 68408U 26065A   26156.41316029  .00003221  00000+0  15898-3 0  9992
2 68408  97.4029  37.1716 0017799  49.7573 310.5214 15.18472166 10471
